{"type":"Feature","properties":{"day":4,"source":"OSRM","distance_km":140.8,"duration_minutes":119,"original_points":2789,"simplified_points":365},"geometry":{"type":"LineString","coordinates":[[131.496686,33.272876],[131.49582,33.272936],[131.495484,33.275776],[131.493565,33.275637],[131.492491,33.275847],[131.489415,33.278014],[131.488847,33.281449],[131.488515,33.281867],[131.484735,33.283305],[131.481028,33.283497],[131.479822,33.284805],[131.477456,33.284006],[131.475939,33.284202],[131.475467,33.284684],[131.475199,33.285868],[131.473688,33.286743],[131.47222,33.288853],[131.469756,33.28998],[131.468947,33.289998],[131.468328,33.289476],[131.468762,33.287666],[131.468166,33.286946],[131.467283,33.28689],[131.46529,33.287596],[131.462405,33.287844],[131.461499,33.28843],[131.460633,33.290589],[131.459831,33.291112],[131.460042,33.292582],[131.460869,33.292494],[131.461317,33.292788],[131.461446,33.294716],[131.462943,33.295639],[131.462855,33.297067],[131.461903,33.299322],[131.457559,33.305601],[131.456191,33.308052],[131.455478,33.310075],[131.455049,33.313691],[131.455524,33.316706],[131.456321,33.319159],[131.460713,33.325875],[131.461623,33.327754],[131.462183,33.330441],[131.461934,33.33307],[131.456975,33.3457],[131.455931,33.347638],[131.454163,33.349514],[131.452231,33.350765],[131.450426,33.351375],[131.448337,33.351522],[131.447437,33.351945],[131.44694,33.352675],[131.44619,33.355085],[131.446372,33.35592],[131.446853,33.356599],[131.4498,33.358906],[131.450466,33.360082],[131.451963,33.364065],[131.455812,33.368367],[131.456484,33.370195],[131.456282,33.372262],[131.455288,33.374632],[131.453894,33.376472],[131.452053,33.378197],[131.449783,33.379836],[131.448075,33.380842],[131.44626,33.381495],[131.441782,33.381828],[131.440211,33.382264],[131.438937,33.383064],[131.437929,33.384263],[131.436806,33.386947],[131.434687,33.389965],[131.433717,33.393958],[131.433092,33.394936],[131.430641,33.397285],[131.429761,33.398759],[131.429462,33.400603],[131.430276,33.403969],[131.430253,33.405707],[131.429331,33.407796],[131.426525,33.410551],[131.425675,33.412142],[131.42396,33.418001],[131.423947,33.419667],[131.424562,33.424825],[131.42413,33.426795],[131.423423,33.428],[131.422588,33.428937],[131.420633,33.430391],[131.413155,33.433057],[131.405767,33.43705],[131.403704,33.437523],[131.397596,33.437693],[131.394477,33.438719],[131.392706,33.439878],[131.391173,33.441533],[131.389356,33.445475],[131.388744,33.446298],[131.387628,33.44718],[131.386717,33.447565],[131.385519,33.447818],[131.384143,33.447772],[131.375337,33.445948],[131.372465,33.445662],[131.369709,33.445949],[131.367212,33.446737],[131.364128,33.448434],[131.361528,33.450545],[131.360211,33.452369],[131.358868,33.45555],[131.358187,33.456441],[131.35701,33.457348],[131.354508,33.458108],[131.348423,33.458589],[131.346424,33.459335],[131.344725,33.460563],[131.343887,33.461591],[131.343206,33.462999],[131.342944,33.464545],[131.342962,33.467276],[131.342281,33.468807],[131.340958,33.469843],[131.337492,33.470891],[131.335953,33.471963],[131.334629,33.473967],[131.33144,33.480799],[131.329702,33.483658],[131.326877,33.486874],[131.32064,33.49215],[131.319436,33.493753],[131.318046,33.496283],[131.316577,33.497082],[131.316678,33.497459],[131.318302,33.498592],[131.320925,33.50215],[131.324843,33.508525],[131.325925,33.51122],[131.326012,33.513318],[131.325453,33.515368],[131.321655,33.520939],[131.320572,33.521679],[131.317505,33.52301],[131.314233,33.526486],[131.309876,33.528705],[131.3089,33.529691],[131.307482,33.531932],[131.304731,33.534326],[131.30353,33.534912],[131.300859,33.535646],[131.297907,33.537766],[131.290507,33.541065],[131.286138,33.544288],[131.273972,33.551001],[131.266654,33.551403],[131.260463,33.553178],[131.253491,33.554109],[131.251642,33.553986],[131.247811,33.553198],[131.239196,33.552754],[131.232603,33.550869],[131.230686,33.5506],[131.228857,33.550787],[131.22526,33.552002],[131.223695,33.552302],[131.211053,33.552296],[131.209387,33.552604],[131.207707,33.553282],[131.202148,33.557437],[131.199996,33.558647],[131.196732,33.559956],[131.19438,33.560564],[131.188319,33.561475],[131.180844,33.56185],[131.17798,33.562754],[131.174026,33.565811],[131.171403,33.569198],[131.170204,33.570047],[131.166928,33.571708],[131.165023,33.57366],[131.161999,33.577872],[131.161691,33.579088],[131.161554,33.584173],[131.160955,33.585304],[131.159832,33.58634],[131.149347,33.591526],[131.133858,33.597933],[131.130207,33.600056],[131.117942,33.605617],[131.110579,33.609449],[131.102049,33.613005],[131.102068,33.613572],[131.099447,33.616309],[131.097757,33.61753],[131.094462,33.621983],[131.088725,33.625262],[131.0877,33.627847],[131.086873,33.628709],[131.073233,33.636585],[131.072134,33.637429],[131.069444,33.641082],[131.068205,33.644113],[131.067799,33.644197],[131.066599,33.645587],[131.065783,33.645906],[131.064964,33.645863],[131.062004,33.644686],[131.060299,33.645002],[131.040601,33.657889],[131.031499,33.663457],[131.027366,33.665477],[131.025458,33.667],[131.021595,33.66909],[131.016721,33.672296],[131.009313,33.675654],[131.00672,33.677088],[131.005121,33.678415],[131.003334,33.681262],[131.00254,33.682142],[130.999951,33.684013],[130.998877,33.684525],[130.981468,33.688766],[130.974751,33.689182],[130.971604,33.688273],[130.970875,33.688266],[130.969978,33.688709],[130.969271,33.690157],[130.968707,33.690561],[130.967479,33.690835],[130.966079,33.690367],[130.965294,33.690369],[130.962968,33.691509],[130.956656,33.691838],[130.950322,33.691849],[130.946106,33.69134],[130.943814,33.691296],[130.939047,33.691681],[130.925566,33.691872],[130.920423,33.691406],[130.915906,33.690359],[130.914322,33.690238],[130.910101,33.690695],[130.908712,33.691138],[130.906742,33.689351],[130.900417,33.685062],[130.894255,33.683311],[130.890624,33.681975],[130.876671,33.677996],[130.874652,33.67776],[130.871034,33.678607],[130.865628,33.678395],[130.851274,33.675095],[130.850636,33.674731],[130.849574,33.673551],[130.849119,33.671247],[130.848429,33.669966],[130.845723,33.667987],[130.831798,33.663102],[130.817982,33.658891],[130.810563,33.654682],[130.80763,33.653263],[130.794169,33.648881],[130.790105,33.646534],[130.786298,33.645091],[130.766772,33.641638],[130.764278,33.641393],[130.759275,33.641418],[130.736663,33.643253],[130.733919,33.643052],[130.731586,33.642135],[130.727265,33.639104],[130.724015,33.637777],[130.721436,33.635324],[130.720471,33.634722],[130.717802,33.633687],[130.712571,33.632379],[130.695629,33.622786],[130.693745,33.62263],[130.683443,33.624398],[130.670498,33.622886],[130.66615,33.621935],[130.649455,33.615375],[130.645263,33.61253],[130.643739,33.612212],[130.641419,33.612132],[130.640198,33.611799],[130.639368,33.611236],[130.638111,33.609869],[130.637182,33.609359],[130.635945,33.609143],[130.632643,33.609138],[130.630648,33.608536],[130.629236,33.607497],[130.627027,33.604521],[130.623694,33.602555],[130.622735,33.600356],[130.621858,33.599398],[130.619217,33.598411],[130.616683,33.596943],[130.614507,33.596505],[130.612216,33.596498],[130.610551,33.596879],[130.605738,33.599855],[130.604667,33.600233],[130.594933,33.600027],[130.591032,33.600916],[130.587932,33.602349],[130.584309,33.604929],[130.582227,33.607322],[130.581703,33.609494],[130.582159,33.612328],[130.582063,33.613799],[130.581392,33.615323],[130.580296,33.616127],[130.579299,33.616247],[130.575661,33.615452],[130.573721,33.615431],[130.572897,33.615795],[130.571773,33.617044],[130.571012,33.617492],[130.567702,33.617445],[130.563735,33.619397],[130.56037,33.619822],[130.556363,33.621661],[130.554021,33.622069],[130.549954,33.622281],[130.543497,33.620864],[130.541375,33.620846],[130.540099,33.621477],[130.538014,33.624117],[130.536445,33.625233],[130.53043,33.626713],[130.523456,33.629865],[130.516357,33.632282],[130.513961,33.632341],[130.511695,33.631775],[130.509313,33.630476],[130.506383,33.62835],[130.503854,33.627229],[130.501967,33.62683],[130.497291,33.626411],[130.4923,33.626648],[130.489457,33.627299],[130.483223,33.629337],[130.479038,33.629697],[130.474922,33.628936],[130.467879,33.626087],[130.465342,33.625538],[130.462817,33.62543],[130.458886,33.625991],[130.446538,33.628795],[130.442083,33.626909],[130.439673,33.624933],[130.437106,33.600431],[130.434239,33.595013],[130.436836,33.591935],[130.438307,33.589746],[130.438598,33.588623],[130.438627,33.5868],[130.439001,33.58579],[130.440509,33.585858],[130.441148,33.586809],[130.441847,33.586942],[130.443674,33.584528]]}}