{"type":"Feature","properties":{"day":2,"source":"OSRM","distance_km":179.3,"duration_minutes":182,"original_points":5311,"simplified_points":575},"geometry":{"type":"LineString","coordinates":[[130.443674,33.584528],[130.445342,33.582032],[130.444813,33.581568],[130.443698,33.581771],[130.442789,33.581266],[130.438862,33.585508],[130.438423,33.586609],[130.438347,33.5889],[130.438075,33.589686],[130.433937,33.594671],[130.4367,33.599681],[130.436988,33.600568],[130.439503,33.624792],[130.442083,33.626909],[130.4468,33.628936],[130.460349,33.625947],[130.463615,33.625654],[130.467342,33.626144],[130.475702,33.629364],[130.478323,33.629837],[130.480307,33.629881],[130.483301,33.629498],[130.491228,33.626965],[130.493861,33.626548],[130.497278,33.626492],[130.501968,33.626921],[130.503804,33.627326],[130.506312,33.628437],[130.509824,33.63092],[130.511654,33.631866],[130.513936,33.63243],[130.516382,33.632374],[130.523074,33.630122],[130.530765,33.626703],[130.536491,33.625326],[130.538066,33.624226],[130.540051,33.621648],[130.541388,33.620934],[130.542843,33.620844],[130.550286,33.622402],[130.555461,33.621954],[130.55662,33.621648],[130.560398,33.619892],[130.564124,33.619337],[130.567731,33.617527],[130.571031,33.617569],[130.571663,33.617254],[130.57295,33.615857],[130.573766,33.615494],[130.575652,33.615512],[130.579287,33.616325],[130.580481,33.616145],[130.581595,33.615172],[130.582198,33.613573],[130.582263,33.612465],[130.581795,33.609476],[130.582322,33.607647],[130.584909,33.604853],[130.588121,33.602626],[130.591122,33.601237],[130.5947,33.600317],[130.597914,33.600055],[130.60389,33.600295],[130.604989,33.600159],[130.610551,33.596879],[130.612216,33.596498],[130.614507,33.596505],[130.616683,33.596943],[130.619217,33.598411],[130.621858,33.599398],[130.622735,33.600356],[130.623694,33.602555],[130.627027,33.604521],[130.629236,33.607497],[130.630648,33.608536],[130.632643,33.609138],[130.635945,33.609143],[130.637182,33.609359],[130.638111,33.609869],[130.639368,33.611236],[130.640198,33.611799],[130.641419,33.612132],[130.643739,33.612212],[130.645263,33.61253],[130.649455,33.615375],[130.66615,33.621935],[130.669881,33.622798],[130.683036,33.624485],[130.684397,33.624425],[130.693855,33.622709],[130.695649,33.622898],[130.712231,33.632307],[130.717999,33.633841],[130.720562,33.63489],[130.723969,33.637872],[130.727132,33.639133],[130.731589,33.642257],[130.733691,33.643078],[130.735874,33.643362],[130.740397,33.643242],[130.764305,33.641465],[130.786285,33.645157],[130.789092,33.646134],[130.794957,33.649259],[130.808053,33.653545],[130.810919,33.654988],[130.816252,33.658187],[130.818201,33.659056],[130.832168,33.663287],[130.84549,33.667979],[130.847756,33.669397],[130.848463,33.670136],[130.848992,33.671118],[130.849556,33.673665],[130.851149,33.675149],[130.865628,33.678395],[130.871034,33.678607],[130.874652,33.67776],[130.876671,33.677996],[130.890624,33.681975],[130.894255,33.683311],[130.900417,33.685062],[130.906742,33.689351],[130.90864,33.691165],[130.910101,33.690695],[130.914322,33.690238],[130.915906,33.690359],[130.920423,33.691406],[130.925566,33.691872],[130.939047,33.691681],[130.943814,33.691296],[130.946106,33.69134],[130.950322,33.691849],[130.956656,33.691838],[130.962968,33.691509],[130.965294,33.690369],[130.966079,33.690367],[130.967479,33.690835],[130.968707,33.690561],[130.969271,33.690157],[130.969978,33.688709],[130.970875,33.688266],[130.971604,33.688273],[130.974751,33.689182],[130.981468,33.688766],[130.998877,33.684525],[131.002471,33.682219],[131.003334,33.681262],[131.005121,33.678415],[131.00672,33.677088],[131.009313,33.675654],[131.016721,33.672296],[131.021595,33.66909],[131.025458,33.667],[131.027366,33.665477],[131.031499,33.663457],[131.040601,33.657889],[131.060299,33.645002],[131.062004,33.644686],[131.064964,33.645863],[131.065646,33.645926],[131.066514,33.645644],[131.067799,33.644197],[131.068205,33.644113],[131.069603,33.640825],[131.072134,33.637429],[131.073233,33.636585],[131.086873,33.628709],[131.0877,33.627847],[131.088725,33.625262],[131.094359,33.62209],[131.097686,33.617602],[131.09946,33.616451],[131.102011,33.613649],[131.102086,33.613101],[131.110656,33.609503],[131.117772,33.605796],[131.1305,33.600015],[131.133937,33.598017],[131.150167,33.591272],[131.1599,33.586418],[131.161041,33.585357],[131.161614,33.584278],[131.161975,33.57828],[131.162416,33.577319],[131.164076,33.575084],[131.166616,33.572067],[131.171155,33.569526],[131.172403,33.568263],[131.174097,33.565889],[131.178036,33.562829],[131.180588,33.561971],[131.188417,33.561559],[131.193645,33.560805],[131.196856,33.559994],[131.199289,33.559075],[131.201743,33.557809],[131.207751,33.553369000000004],[131.210695,33.552438],[131.2232,33.552435],[131.225295,33.552087],[131.228894,33.550881],[131.230918,33.550694],[131.232833,33.55102],[131.239068,33.552822],[131.247378,33.553255],[131.251723,33.55408],[131.253503,33.554183],[131.260294,33.55331],[131.266944,33.551454],[131.274122,33.551129],[131.278446,33.548526],[131.286137,33.544401],[131.290626,33.541107],[131.297954,33.53781],[131.300859,33.535646],[131.30353,33.534912],[131.304731,33.534326],[131.307482,33.531932],[131.3089,33.529691],[131.309876,33.528705],[131.314233,33.526486],[131.317505,33.52301],[131.320572,33.521679],[131.321655,33.520939],[131.325663,33.515072],[131.326261,33.512776],[131.326058,33.510346],[131.329086,33.507624],[131.330879,33.505478],[131.328751,33.502795],[131.325167,33.499202],[131.324898,33.498648],[131.324982,33.497957],[131.328993,33.49082],[131.329483,33.490512],[131.331749,33.490047],[131.333623,33.489165],[131.334339,33.488151],[131.334768,33.48617],[131.334515,33.483369],[131.334916,33.481159],[131.334789,33.480502],[131.333732,33.478929],[131.330766,33.476497],[131.328226,33.472636],[131.327814,33.471609],[131.327791,33.46916],[131.328311,33.466536],[131.328788,33.46593],[131.330539,33.464926],[131.331005,33.464109],[131.330944,33.460042],[131.328789,33.45604],[131.329036,33.453156],[131.329368,33.452101],[131.33069,33.449514],[131.331881,33.448515],[131.332755,33.446791],[131.33403,33.445748],[131.336296,33.445856],[131.339685,33.44556],[131.343797,33.444726],[131.346734,33.443253],[131.350105,33.443373],[131.350865,33.442953],[131.353876,33.439417],[131.363724,33.435528],[131.36822,33.434978],[131.369261,33.434575],[131.371088,33.432857],[131.373118,33.430169],[131.373399,33.429164],[131.373287,33.427108],[131.373673,33.425389],[131.374903,33.42425],[131.376532,33.423663],[131.377922,33.42272],[131.380313,33.419331],[131.382031,33.415604],[131.381921,33.413616],[131.382118,33.413104],[131.382715,33.4122],[131.384055,33.41109],[131.386489,33.406727],[131.386797,33.405718],[131.386894,33.403533],[131.387216,33.402653],[131.390118,33.398872],[131.391713,33.396064],[131.392692,33.393347],[131.397006,33.384791],[131.397376,33.38201],[131.396995,33.380581],[131.395855,33.378281],[131.395749,33.376493],[131.395126,33.374663],[131.395876,33.372552],[131.395448,33.370213],[131.396603,33.368848],[131.397324,33.368348],[131.39756,33.367841],[131.396658,33.366601],[131.395882,33.363245],[131.395817,33.361856],[131.396106,33.360815],[131.395878,33.360137],[131.395857,33.358402],[131.39688,33.356001],[131.398331,33.355639],[131.398751,33.355313],[131.398417,33.353315],[131.399331,33.351214],[131.400141,33.350239],[131.399908,33.348766],[131.401369,33.347372],[131.401739,33.346511],[131.401581,33.344551],[131.399587,33.342646],[131.398614,33.340623],[131.398639,33.338835],[131.399582,33.3374],[131.400543,33.337176],[131.401499,33.337795],[131.402451,33.337803],[131.407575,33.335093],[131.408563,33.334914],[131.409136,33.33519],[131.410067,33.336327],[131.411981,33.337606],[131.413595,33.341127],[131.414311,33.341836],[131.417227,33.342437],[131.419926,33.341827],[131.421929,33.342402],[131.42141,33.342844],[131.418934,33.343558],[131.41613,33.345625],[131.416307,33.346713],[131.415941,33.34747],[131.416144,33.349197],[131.414347,33.351076],[131.414488,33.35175],[131.41413,33.354048],[131.414879,33.354786],[131.414585,33.35503],[131.413728,33.354894],[131.413413,33.3551],[131.413598,33.355483],[131.414913,33.355433],[131.415459,33.354589],[131.415849,33.354465],[131.416211,33.354978],[131.416197,33.355365],[131.415954,33.355767],[131.414731,33.356564],[131.414378,33.357725],[131.414215,33.357845],[131.413678,33.35755],[131.413009,33.358086],[131.412756,33.357847],[131.413046,33.357],[131.414034,33.356516],[131.414121,33.356112],[131.413889,33.355934],[131.412607,33.355462],[131.410693,33.355243],[131.408498,33.356218],[131.407892,33.357031],[131.408387,33.357996],[131.407793,33.35831],[131.407043,33.357927],[131.406868,33.357571],[131.407347,33.356904],[131.407315,33.35591],[131.406855,33.355612],[131.405875,33.3558],[131.405773,33.355142],[131.406525,33.354984],[131.408109,33.355486],[131.409599,33.355313],[131.40976,33.354976],[131.408205,33.354703],[131.407637,33.354018],[131.406673,33.353578],[131.406571,33.353046],[131.408221,33.353344],[131.408489,33.354225],[131.408781,33.354306],[131.409241,33.353935],[131.410053,33.353851],[131.410137,33.352436],[131.410443,33.35199],[131.409871,33.351588],[131.409819,33.351234],[131.410214,33.35101],[131.410945,33.351334],[131.411416,33.351169],[131.411549,33.350962],[131.411048,33.349934],[131.411134,33.349427],[131.412283,33.34901],[131.415006,33.350287],[131.416144,33.349197],[131.415941,33.34747],[131.416291,33.346858],[131.416066,33.345729],[131.418934,33.343558],[131.42141,33.342844],[131.421929,33.342402],[131.424739,33.343367],[131.427548,33.343623],[131.428721,33.344952],[131.429163,33.346176],[131.430422,33.347168],[131.433445,33.348707],[131.437103,33.349966],[131.437887,33.35004],[131.439083,33.349421],[131.439899,33.349359],[131.441808,33.349962],[131.442804,33.351244],[131.443652,33.35151],[131.450921,33.351017],[131.451558,33.350304],[131.451349,33.348792],[131.451795,33.348163],[131.453033,33.347594],[131.454872,33.347766],[131.455702,33.347308],[131.457125,33.344253],[131.456799,33.34368],[131.455821,33.342966],[131.455712,33.342257],[131.456214,33.34172],[131.457795,33.341352],[131.458376,33.340945],[131.459561,33.338533],[131.460354,33.335955],[131.459977,33.332643],[131.457972,33.330697],[131.454912,33.330148],[131.450984,33.328744],[131.450405,33.328233],[131.450573,33.327424],[131.449875,33.326284],[131.449804,33.325697],[131.450333,33.324777],[131.451028,33.324478],[131.452407,33.325161],[131.453795,33.325084],[131.454086,33.324671],[131.453972,33.323651],[131.454222,33.323167],[131.456049,33.321857],[131.456577,33.321046],[131.457734,33.32025],[131.458707,33.318917],[131.458609,33.318193],[131.457757,33.318021],[131.455912,33.318338],[131.454271,33.319242],[131.453085,33.3189],[131.452738,33.318699],[131.452326,33.317873],[131.453095,33.317459],[131.452604,33.316675],[131.454243,33.316725],[131.454782,33.316336],[131.455441,33.315262],[131.456917,33.314273],[131.458107,33.314654],[131.459017,33.314225],[131.459835,33.313412],[131.461874,33.309802],[131.464051,33.310066],[131.471074,33.315078],[131.469715,33.31587],[131.471146,33.315098],[131.472704,33.315391],[131.473026,33.315839],[131.47275,33.316083],[131.473026,33.315839],[131.472818,33.315488],[131.471612,33.315115],[131.475337,33.313933],[131.485584,33.311509],[131.486161,33.310979],[131.489001,33.306234],[131.489965,33.305557],[131.502183,33.305556],[131.502373,33.294547],[131.503885,33.289617],[131.504772,33.284686],[131.506825,33.277918],[131.507065,33.275461],[131.507487,33.273786],[131.50831,33.27193],[131.509472,33.270662],[131.510519,33.268874],[131.51146,33.267893],[131.516265,33.265557],[131.518935,33.265054],[131.52405,33.265315],[131.525371,33.265072],[131.528253,33.263446],[131.530111,33.261662],[131.533878,33.258931],[131.534197,33.259127],[131.533674,33.259402],[131.533831,33.259488],[131.535071,33.258549],[131.536868,33.258256],[131.535071,33.258549],[131.534496,33.25913],[131.533776,33.258827],[131.529933,33.261641],[131.528218,33.263307],[131.525451,33.26489],[131.523909,33.265175],[131.51899,33.264917],[131.516234,33.265409],[131.511585,33.267691],[131.51071,33.26844],[131.509417,33.27052],[131.508152,33.271946],[131.507377,33.273756],[131.506947,33.275453],[131.506734,33.277741],[131.504619,33.284784],[131.503782,33.289517],[131.502264,33.294523],[131.502074,33.305368],[131.490764,33.305348],[131.489292,33.305819],[131.48587,33.311159],[131.485069,33.311657],[131.48344,33.312036],[131.48561,33.312309],[131.485641,33.312638],[131.484964,33.312965],[131.484808,33.313708],[131.48546,33.315014],[131.485441,33.314061],[131.485649,33.314034],[131.485891,33.315146],[131.484671,33.316633],[131.484272,33.318893],[131.482549,33.318914],[131.484046,33.31928],[131.484341,33.319835],[131.483196,33.319805],[131.484287,33.319885],[131.484287,33.319674],[131.483899,33.319207],[131.483034,33.319133],[131.480158,33.31808],[131.477202,33.317422],[131.477127,33.317089],[131.477948,33.316631],[131.477874,33.315865],[131.478824,33.315483],[131.479459,33.315492],[131.47934,33.313044],[131.485584,33.311509],[131.486161,33.310979],[131.488857,33.306456],[131.489529,33.305751],[131.490355,33.305465],[131.494712,33.305388],[131.496313,33.288293],[131.498273,33.272732],[131.498199,33.272534],[131.497164,33.272943],[131.496686,33.272876]]}}