{"type":"Feature","properties":{"day":1,"source":"OSRM","distance_km":45.9,"duration_minutes":50,"original_points":1120,"simplified_points":139},"geometry":{"type":"LineString","coordinates":[[130.443674,33.584528],[130.445303,33.582303],[130.445112,33.581685],[130.443698,33.581771],[130.442789,33.581266],[130.440541,33.583517],[130.438753,33.582325],[130.424869,33.593864],[130.422642,33.592039],[130.419912,33.59209],[130.418807,33.591145],[130.418802,33.590897],[130.419532,33.590916],[130.418887,33.590782],[130.418766,33.587686],[130.422268,33.587502],[130.422527,33.591971],[130.426876,33.595489],[130.431694,33.598855],[130.435035,33.600933],[130.436967,33.601335],[130.439503,33.624792],[130.442083,33.626909],[130.4468,33.628936],[130.460349,33.625947],[130.463615,33.625654],[130.467342,33.626144],[130.475702,33.629364],[130.478323,33.629837],[130.480307,33.629881],[130.483301,33.629498],[130.491228,33.626965],[130.493861,33.626548],[130.497278,33.626492],[130.501968,33.626921],[130.503804,33.627326],[130.506312,33.628437],[130.509824,33.63092],[130.511654,33.631866],[130.513613,33.632391],[130.515659,33.63246],[130.517638,33.632079],[130.523074,33.630122],[130.530765,33.626703],[130.536491,33.625326],[130.538066,33.624226],[130.540051,33.621648],[130.541388,33.620934],[130.542843,33.620844],[130.550286,33.622402],[130.557397,33.622006],[130.560653,33.620628],[130.563264,33.620815],[130.564588,33.620602],[130.566241,33.61931],[130.566937,33.619033],[130.56864,33.618897],[130.570666,33.619349],[130.571794,33.619312],[130.573187,33.618898],[130.573882,33.617651],[130.576444,33.61756],[130.577017,33.617247],[130.576851,33.616846],[130.574492,33.616831],[130.576769,33.616825],[130.577011,33.617163],[130.576444,33.61756],[130.573772,33.617697],[130.573187,33.618898],[130.571794,33.619312],[130.570666,33.619349],[130.56864,33.618897],[130.566937,33.619033],[130.566241,33.61931],[130.564588,33.620602],[130.563038,33.620816],[130.56078,33.620606],[130.557397,33.622006],[130.555821,33.622057],[130.554218,33.621695],[130.552528,33.622212],[130.550401,33.622321],[130.543027,33.620786],[130.541375,33.620846],[130.540099,33.621477],[130.538014,33.624117],[130.536445,33.625233],[130.530966,33.626528],[130.5231,33.630004],[130.518031,33.631846],[130.515667,33.632366],[130.513641,33.632302],[130.511695,33.631775],[130.509887,33.63084],[130.505619,33.627928],[130.503854,33.627229],[130.501967,33.62683],[130.496666,33.626382],[130.492946,33.626564],[130.489457,33.627299],[130.483223,33.629337],[130.479038,33.629697],[130.474922,33.628936],[130.468083,33.626079],[130.465336,33.625606],[130.462923,33.625506],[130.459618,33.625917],[130.446709,33.628732],[130.433078,33.632034],[130.422708,33.634936],[130.420569,33.635264],[130.419949,33.634994],[130.419391,33.634358],[130.41528,33.62421],[130.413334,33.620992],[130.411184,33.615713],[130.410975,33.615527],[130.409886,33.615748],[130.409346,33.615571],[130.409551,33.615091],[130.410972,33.614625],[130.410826,33.614251],[130.413584,33.613361],[130.409819,33.607254],[130.409511,33.604995],[130.407087,33.604248],[130.407236,33.604082],[130.404894,33.601787],[130.409608,33.597929],[130.406749,33.595121],[130.407758,33.594574],[130.40697,33.593739],[130.405902,33.594103],[130.405278,33.593679],[130.405027,33.593437],[130.405762,33.592829],[130.406016,33.593058],[130.405578,33.593441]]}}