{"type":"Feature","properties":{"day":3,"source":"OSRM","distance_km":271.9,"duration_minutes":254,"original_points":10842,"simplified_points":1539},"geometry":{"type":"LineString","coordinates":[[131.496686,33.272876],[131.49582,33.272936],[131.495484,33.275776],[131.493565,33.275637],[131.492491,33.275847],[131.489415,33.278014],[131.488847,33.281449],[131.488365,33.281936],[131.484735,33.283305],[131.481028,33.283497],[131.479822,33.284805],[131.477456,33.284006],[131.475939,33.284202],[131.475467,33.284684],[131.475199,33.285868],[131.473688,33.286743],[131.47222,33.288853],[131.469756,33.28998],[131.468947,33.289998],[131.468407,33.289616],[131.468278,33.289085],[131.468762,33.287666],[131.468416,33.287075],[131.467892,33.286877],[131.46529,33.287596],[131.462405,33.287844],[131.461499,33.28843],[131.460633,33.290589],[131.459831,33.291112],[131.45982,33.291654],[131.460042,33.292582],[131.460869,33.292494],[131.461317,33.292788],[131.461446,33.294716],[131.462943,33.295639],[131.462855,33.297067],[131.461903,33.299322],[131.457559,33.305601],[131.456191,33.308052],[131.455478,33.310075],[131.455049,33.313691],[131.455524,33.316706],[131.456159,33.318812],[131.457366,33.321025],[131.460713,33.325875],[131.461866,33.328528],[131.462163,33.331597],[131.461509,33.334466],[131.456576,33.346571],[131.455473,33.348228],[131.453805,33.349794],[131.450919,33.351325],[131.44755,33.35202],[131.444445,33.351853],[131.43965,33.350884],[131.435666,33.349716],[131.432123,33.348286],[131.429568,33.346797],[131.427952,33.345271],[131.42666,33.342832],[131.425778,33.337519],[131.424401,33.334374],[131.422385,33.331816],[131.418562,33.328239],[131.416221,33.325426],[131.413256,33.320816],[131.409754,33.316073],[131.406172,33.308321],[131.403925,33.305767],[131.40202,33.304444],[131.398997,33.303162],[131.384581,33.30023],[131.382178,33.299117],[131.378306,33.296657],[131.375666,33.295619],[131.371733,33.295072],[131.36493,33.296001],[131.362744,33.295902],[131.359352,33.294882],[131.355477,33.292719],[131.351248,33.28964],[131.347353,33.285803],[131.345961,33.283211],[131.342686,33.272754],[131.340732,33.269033],[131.338803,33.266875],[131.334674,33.264137],[131.333092,33.262772],[131.332137,33.261562],[131.329392,33.256876],[131.328927,33.256864],[131.328573,33.257158],[131.328127,33.25987],[131.325607,33.260275],[131.325167,33.26062],[131.324816,33.261602],[131.323909,33.261827],[131.321005,33.259828],[131.320307,33.258698],[131.319144,33.258268],[131.317516,33.25719],[131.31685,33.25725],[131.314182,33.258567],[131.311528,33.258906],[131.310828,33.258803],[131.310383,33.258396],[131.309923,33.257085],[131.308131,33.256028],[131.30784,33.254274],[131.307398,33.25373],[131.303964,33.252483],[131.302477,33.253096],[131.300735,33.253384],[131.296194,33.250887],[131.2956,33.249894],[131.29498,33.249669],[131.293081,33.250273],[131.290772,33.250265],[131.287622,33.251374],[131.286918,33.25181],[131.285958,33.252953],[131.284979,33.253366],[131.278864,33.252263],[131.276738,33.253422],[131.274228,33.252555],[131.27306,33.252486],[131.267795,33.253961],[131.266289,33.253893],[131.261116,33.251824],[131.257186,33.248979],[131.255007,33.247825],[131.2516,33.246674],[131.24796,33.244866],[131.245007,33.243106],[131.244053,33.241887],[131.243472,33.241599],[131.242353,33.241506],[131.240597,33.242348],[131.237829,33.243196],[131.231991,33.242261],[131.228175,33.242248],[131.226453,33.241785],[131.221844,33.23886],[131.221725,33.238271],[131.221977,33.237302],[131.22181,33.236868],[131.2189,33.234562],[131.218348,33.232838],[131.215808,33.231403],[131.213975,33.229682],[131.213212,33.228622],[131.212495,33.226338],[131.211852,33.225628],[131.210958,33.225137],[131.207929,33.224851],[131.203806,33.225107],[131.201785,33.224471],[131.200923,33.224479],[131.19509,33.22734],[131.192117,33.229812],[131.190113,33.230075],[131.189864,33.229033],[131.187083,33.228503],[131.187107,33.228188],[131.187616,33.227694],[131.187498,33.227402],[131.185754,33.227567],[131.184254,33.228024],[131.180616,33.227455],[131.178272,33.226509],[131.175409,33.225985],[131.175728,33.224364],[131.175582,33.223218],[131.173116,33.220779],[131.17264,33.21976],[131.172645,33.216923],[131.171068,33.210133],[131.171766,33.208267],[131.171617,33.207247],[131.171178,33.206682],[131.169092,33.205196],[131.168447,33.203103],[131.16627,33.198829],[131.163991,33.196021],[131.162378,33.195271],[131.157518,33.194075],[131.150461,33.191159],[131.150054,33.190593],[131.149647,33.189261],[131.148698,33.188509],[131.147763,33.188401],[131.147481,33.188132],[131.147394,33.186718],[131.146889,33.185261],[131.145912,33.184604],[131.14572,33.183391],[131.144738,33.181857],[131.144016,33.181294],[131.142242,33.180502],[131.141026,33.180414],[131.138839,33.180896],[131.137669,33.18066],[131.134901,33.181375],[131.132354,33.180567],[131.12957,33.181535],[131.128608,33.18213],[131.126595,33.182297],[131.124932,33.182094],[131.123357,33.18153],[131.121262,33.181381],[131.117197,33.178405],[131.116948,33.177966],[131.117009,33.176388],[131.11586,33.173362],[131.115349,33.172788],[131.112804,33.171259],[131.112345,33.170618],[131.112347,33.169846],[131.11356,33.166569],[131.11351,33.165832],[131.112445,33.164471],[131.110156,33.162783],[131.109658,33.161918],[131.109081,33.158763],[131.109287,33.158029],[131.110453,33.15657],[131.110549,33.155703],[131.109758,33.152158],[131.106741,33.148925],[131.106405,33.14825],[131.106444,33.147641],[131.107162,33.145936],[131.10657,33.144207],[131.106617,33.143296],[131.106353,33.142708],[131.105417,33.141959],[131.103826,33.141181],[131.102424,33.140969],[131.101741,33.140033],[131.101199,33.139759],[131.09789,33.140256],[131.093732,33.140436],[131.092482,33.140202],[131.090914,33.139354],[131.088993,33.136873],[131.089161,33.135404],[131.088887,33.134879],[131.088117,33.134333],[131.086872,33.134186],[131.086395,33.133668],[131.087655,33.131233],[131.087903,33.13045],[131.087728,33.129926],[131.086269,33.129385],[131.085461,33.127711],[131.083512,33.12658],[131.082454,33.124442],[131.081613,33.124359],[131.078765,33.126158],[131.076906,33.125568],[131.074397,33.125676],[131.073717,33.12537],[131.072052,33.123798],[131.069836,33.123302],[131.068983,33.123457],[131.067724,33.124637],[131.066942,33.12493],[131.066452,33.124868],[131.064007,33.12285],[131.062667,33.123872],[131.059057,33.11876],[131.058504,33.117662],[131.058632,33.116265],[131.060852,33.112607],[131.063389,33.110529],[131.06365,33.110075],[131.063777,33.108773],[131.064213,33.108117],[131.06639,33.106866],[131.066946,33.106156],[131.068245,33.098384],[131.06808,33.097403],[131.0667,33.095625],[131.066446,33.09487],[131.066498,33.092857],[131.06774,33.089144],[131.067375,33.087097],[131.065305,33.08393],[131.061694,33.080591],[131.061066,33.079444],[131.061039,33.078361],[131.061728,33.07604],[131.063621,33.073791],[131.063751,33.073057],[131.06348,33.071306],[131.064182,33.070111],[131.064242,33.068657],[131.066182,33.067507],[131.067266,33.065726],[131.066852,33.063332],[131.06744,33.061658],[131.065989,33.060148],[131.065714,33.059421],[131.067166,33.058508],[131.067561,33.057911],[131.067019,33.05635],[131.067654,33.054247],[131.066985,33.052911],[131.067507,33.051036],[131.067346,33.048213],[131.06762,33.046427],[131.069098,33.041384],[131.067887,33.038397],[131.065423,33.034132],[131.063706,33.030463],[131.063212,33.028771],[131.063792,33.027854],[131.067289,33.02503],[131.067942,33.024134],[131.067854,33.018067],[131.068906,33.015911],[131.069024,33.015131],[131.06888,33.013281],[131.068532,33.012064],[131.066914,33.010366],[131.066575,33.009567],[131.065583,33.008657],[131.065292,33.008081],[131.065273,33.007366],[131.065849,33.006437],[131.066232,33.006309],[131.066677,33.006899],[131.067046,33.006769],[131.066616,33.006144],[131.06707,33.005124],[131.06589,33.004229],[131.065757,33.003507],[131.064866,33.002918],[131.064582,33.000125],[131.063996,32.999748],[131.063957,32.999491],[131.064221,32.998453],[131.063346,32.996653],[131.063686,32.994987],[131.064309,32.993981],[131.064439,32.993257],[131.064461,32.992453],[131.064088,32.991974],[131.065495,32.990877],[131.066415,32.990716],[131.066998,32.989793],[131.066914,32.989595],[131.066611,32.989557],[131.066403,32.99026],[131.066093,32.990402],[131.065023,32.990293],[131.064144,32.98964],[131.063416,32.989792],[131.063477,32.988057],[131.06249,32.987152],[131.062078,32.986167],[131.063773,32.985067],[131.063447,32.984861],[131.062633,32.985384],[131.061226,32.984853],[131.061207,32.983832],[131.061545,32.983178],[131.061053,32.982063],[131.061599,32.981378],[131.062403,32.981178],[131.062561,32.980643],[131.062036,32.98028],[131.061173,32.980464],[131.060851,32.979451],[131.059931,32.979486],[131.060092,32.977528],[131.059939,32.977373],[131.059309,32.977788],[131.058763,32.97737],[131.058073,32.977702],[131.05729,32.976901],[131.056818,32.977534],[131.055895,32.977385],[131.055194,32.977648],[131.054538,32.976861],[131.053409,32.977041],[131.047711,32.970481],[131.058601,32.964684],[131.059576,32.963737],[131.060806,32.961531],[131.061581,32.96072],[131.068557,32.956465],[131.075434,32.946013],[131.076368,32.945189],[131.078468,32.944313],[131.079531,32.94351],[131.083796,32.937343],[131.082638,32.936579],[131.080313,32.936027],[131.07973,32.93156],[131.079398,32.930628],[131.07864,32.929716],[131.079319,32.928786],[131.079159,32.928008],[131.07885,32.927915],[131.077336,32.92844],[131.074757,32.926843],[131.072419,32.927475],[131.068019,32.925837],[131.066795,32.926199],[131.064869,32.92605],[131.063578,32.924597],[131.062498,32.924413],[131.062205,32.923978],[131.063199,32.923322],[131.064202,32.923431],[131.065515,32.923933],[131.066205,32.923912],[131.067289,32.923182],[131.069071,32.922499],[131.070001,32.921753],[131.071798,32.921498],[131.072306,32.920982],[131.072446,32.919886],[131.073145,32.918503],[131.074235,32.917173],[131.077649,32.916859],[131.079274,32.915931],[131.082288,32.914692],[131.082664,32.914216],[131.082581,32.913867],[131.082025,32.913687],[131.07895,32.913792],[131.07687,32.912464],[131.073527,32.913514],[131.071931,32.913664],[131.069003,32.912942],[131.066072,32.912712],[131.064269,32.911415],[131.062022,32.91045],[131.061518,32.909779],[131.061298,32.908635],[131.060465,32.908221],[131.05945,32.906784],[131.058372,32.906427],[131.057254,32.906496],[131.055643,32.905625],[131.054161,32.903811],[131.052028,32.902335],[131.051641,32.899547],[131.052132,32.897827],[131.051435,32.897064],[131.049681,32.896188],[131.04919,32.895001],[131.046876,32.893345],[131.046726,32.893023],[131.047112,32.892696],[131.047889,32.893335],[131.048668,32.893091],[131.048879,32.89245],[131.047987,32.891608],[131.048395,32.891046],[131.050108,32.892129],[131.051071,32.89211],[131.051046,32.891746],[131.050209,32.891164],[131.05024,32.890802],[131.05374,32.888494],[131.055163,32.888178],[131.055643,32.886998],[131.052049,32.886539],[131.049873,32.884767],[131.049433,32.884177],[131.049501,32.883857],[131.051193,32.884654],[131.056363,32.886131],[131.057505,32.885923],[131.058518,32.885203],[131.05947,32.884956],[131.05997,32.884969],[131.061356,32.885643],[131.066766,32.883029],[131.07036,32.880507],[131.074709,32.880151],[131.07021,32.880563],[131.067982,32.878831],[131.06733,32.878058],[131.067145,32.876968],[131.06774,32.875628],[131.068312,32.874867],[131.069649,32.874237],[131.069818,32.873947],[131.069553,32.873626],[131.068511,32.873666],[131.067892,32.872883],[131.066943,32.872205],[131.067697,32.87146],[131.067519,32.870553],[131.067681,32.869944],[131.069043,32.869196],[131.069136,32.868726],[131.068579,32.868612],[131.067034,32.869675],[131.06585,32.869704],[131.06094,32.866409],[131.056603,32.864638],[131.054717,32.864548],[131.052931,32.864043],[131.049467,32.861134],[131.049494,32.860507],[131.051162,32.860212],[131.05125,32.859887],[131.051052,32.859726],[131.049549,32.859547],[131.048789,32.858934],[131.047275,32.859013],[131.046372,32.859376],[131.046051,32.859219],[131.045557,32.856544],[131.046231,32.856352],[131.047005,32.857295],[131.047454,32.857325],[131.047578,32.855539],[131.048279,32.855055],[131.048289,32.854748],[131.047226,32.854644],[131.045651,32.854065],[131.044758,32.853417],[131.042533,32.852748],[131.042821,32.852516],[131.04686,32.853335],[131.047209,32.853048],[131.046069,32.852899],[131.043197,32.851536],[131.041795,32.851712],[131.041713,32.85138],[131.043373,32.851025],[131.044869,32.85167],[131.049886,32.851755],[131.050359,32.85057],[131.049016,32.848442],[131.049088,32.84798],[131.050998,32.847909],[131.051625,32.849274],[131.052022,32.849355],[131.053204,32.847441],[131.057997,32.845709],[131.058349,32.845073],[131.058297,32.844087],[131.058725,32.843628],[131.059785,32.84352],[131.060349,32.844941],[131.06092,32.844979],[131.06178,32.84381],[131.06186,32.842041],[131.063315,32.841434],[131.06329,32.840185],[131.063483,32.839847],[131.065682,32.838878],[131.069145,32.836231],[131.070033,32.835188],[131.070528,32.833991],[131.07273,32.833403],[131.075478,32.831775],[131.08111,32.831563],[131.087805,32.830225],[131.101713,32.828353],[131.103159,32.827863],[131.107513,32.825311],[131.108974,32.824915],[131.113243,32.824874],[131.116682,32.825597],[131.122038,32.825895],[131.124654,32.826574],[131.130305,32.827421],[131.131669,32.827374],[131.132609,32.827047],[131.134709,32.825227],[131.135292,32.824292],[131.133787,32.821323],[131.134849,32.814998],[131.134267,32.813492],[131.134394,32.812896],[131.135706,32.811508],[131.136656,32.81161],[131.136941,32.812101],[131.136438,32.813815],[131.136613,32.814249],[131.137007,32.814438],[131.138476,32.814369],[131.139192,32.814695],[131.139213,32.815316],[131.138106,32.816133],[131.138176,32.816791],[131.139055,32.817123],[131.140104,32.816662],[131.140947,32.815266],[131.140812,32.814785],[131.139797,32.813815],[131.1407,32.811387],[131.139217,32.810347],[131.139035,32.807793],[131.139248,32.80664],[131.140171,32.805507],[131.142183,32.803864],[131.147657,32.801507],[131.148592,32.802141],[131.149133,32.802153],[131.150451,32.800934],[131.150987,32.800803],[131.153911,32.802253],[131.15723,32.801792],[131.158138,32.802589],[131.158418,32.80467],[131.159851,32.806009],[131.163852,32.806023],[131.16682,32.804366],[131.169971,32.80318],[131.179801,32.797063],[131.187226,32.794971],[131.189239,32.79294],[131.19001,32.791673],[131.191774,32.791188],[131.193662,32.789805],[131.195175,32.789497],[131.195618,32.78898],[131.196178,32.787413],[131.197782,32.786533],[131.198201,32.786674],[131.198475,32.787199],[131.197347,32.787831],[131.197039,32.788755],[131.19645,32.789413],[131.196513,32.789904],[131.197386,32.789944],[131.19888,32.788681],[131.199652,32.788737],[131.203994,32.791447],[131.204431,32.793111],[131.204772,32.793578],[131.207152,32.794439],[131.208135,32.794447],[131.209348,32.793932],[131.211098,32.792615],[131.213146,32.790366],[131.213985,32.789888],[131.219139,32.78888],[131.222473,32.789772],[131.223669,32.789566],[131.224645,32.788628],[131.226742,32.784251],[131.226701,32.782736],[131.229062,32.780302],[131.233692,32.773071],[131.235684,32.770512],[131.238359,32.768112],[131.240431,32.765843],[131.241211,32.765533],[131.242902,32.765863],[131.243743,32.765464],[131.244775,32.764346],[131.244851,32.763734],[131.244287,32.763268],[131.243567,32.763234],[131.242895,32.763821],[131.24295,32.764396],[131.24325,32.764719],[131.243896,32.764817],[131.245209,32.764471],[131.246182,32.764708],[131.248526,32.766657],[131.250795,32.768036],[131.252163,32.772087],[131.253174,32.773023],[131.254496,32.773476],[131.255821,32.773498],[131.258421,32.772474],[131.25955,32.772417],[131.263883,32.773807],[131.265291,32.773479],[131.266693,32.77216],[131.267599,32.771636],[131.271608,32.770769],[131.272506,32.771023],[131.273298,32.772323],[131.273872,32.772698],[131.277859,32.772582],[131.278484,32.77203],[131.279675,32.769263],[131.284516,32.768032],[131.287457,32.764315],[131.289779,32.763133],[131.291775,32.763021],[131.298145,32.764293],[131.300595,32.764153],[131.301001,32.763818],[131.301108,32.763384],[131.300507,32.761902],[131.299721,32.761158],[131.2991,32.759861],[131.299106,32.758926],[131.298613,32.757675],[131.298626,32.756318],[131.29834,32.755597],[131.29846,32.752757],[131.297381,32.750126],[131.297335,32.7476],[131.297987,32.744711],[131.298027,32.742288],[131.298686,32.739007],[131.298593,32.736366],[131.298101,32.733337],[131.298454,32.731916],[131.29801,32.730517],[131.297001,32.729328],[131.296894,32.727862],[131.296506,32.727385],[131.295331,32.726711],[131.295087,32.725821],[131.295575,32.723711],[131.295132,32.72319],[131.293869,32.722539],[131.293546,32.721809],[131.293827,32.721168],[131.295846,32.7192],[131.2978,32.719041],[131.29914,32.719795],[131.300732,32.719453],[131.303169,32.717001],[131.30368,32.716131],[131.303632,32.714473],[131.3043,32.711711],[131.304278,32.71099],[131.303772,32.710183],[131.301619,32.708357],[131.303526,32.706503],[131.301553,32.70547],[131.300427,32.705712],[131.300564,32.70621],[131.300222,32.706284],[131.300032,32.705708],[131.299145,32.705113],[131.299705,32.704524],[131.300873,32.703958],[131.29989,32.704195],[131.300494,32.703825],[131.299908,32.7039],[131.301005,32.703324],[131.301497,32.702772],[131.30139,32.702296],[131.300522,32.701918],[131.300286,32.701321],[131.300618,32.701996],[131.301338,32.702229],[131.301497,32.702772],[131.301005,32.703324],[131.299908,32.7039],[131.300428,32.703742],[131.300335,32.703892],[131.299862,32.704066],[131.300747,32.703898],[131.30062,32.7041],[131.299775,32.704479],[131.299145,32.705113],[131.300032,32.705708],[131.300222,32.706284],[131.300564,32.70621],[131.300427,32.705712],[131.301553,32.70547],[131.303526,32.706503],[131.301439,32.708605],[131.303485,32.709933],[131.304183,32.710759],[131.304339,32.711488],[131.303854,32.713125],[131.30395,32.714083],[131.304617,32.715882],[131.305359,32.716524],[131.306385,32.716598],[131.312628,32.715813],[131.315329,32.71507],[131.31794,32.714021],[131.320899,32.712109],[131.321131,32.711444],[131.320716,32.710284],[131.321022,32.709914],[131.321462,32.710609],[131.322592,32.710289],[131.323217,32.710477],[131.323447,32.711685],[131.323666,32.711859],[131.325172,32.710646],[131.325808,32.710706],[131.327622,32.712036],[131.327888,32.713727],[131.328141,32.713963],[131.329348,32.712989],[131.330613,32.712626],[131.331091,32.712746],[131.331837,32.713425],[131.333021,32.713135],[131.334774,32.713333],[131.335491,32.714574],[131.33736,32.714398],[131.338397,32.713669],[131.339393,32.713888],[131.339776,32.714424],[131.339218,32.71525],[131.339457,32.716145],[131.339273,32.71683],[131.339472,32.717192],[131.34072,32.717234],[131.341572,32.716726],[131.342251,32.716782],[131.344546,32.71746],[131.345383,32.718517],[131.346509,32.719035],[131.347707,32.721351],[131.347992,32.722732],[131.347776,32.72409],[131.348401,32.726803],[131.347968,32.727964],[131.347648,32.730027],[131.347125,32.731089],[131.347519,32.732822],[131.350966,32.735222],[131.351183,32.73694],[131.350662,32.738572],[131.350986,32.739318],[131.351515,32.739679],[131.352037,32.739658],[131.352485,32.739345],[131.353017,32.738327],[131.354193,32.738047],[131.355026,32.738709],[131.356907,32.738557],[131.357595,32.739356],[131.358565,32.739413],[131.359336,32.740183],[131.36115,32.740238],[131.361853,32.740444],[131.362147,32.740991],[131.362883,32.740619],[131.363883,32.741034],[131.364377,32.740669],[131.364899,32.740972],[131.366893,32.741372],[131.367955,32.741302],[131.368136,32.742296],[131.368784,32.742505],[131.369702,32.743953],[131.370514,32.74447],[131.370804,32.745024],[131.37101,32.745861],[131.370789,32.747125],[131.371331,32.747392],[131.37139,32.748017],[131.370564,32.748941],[131.37198,32.749438],[131.373293,32.751052],[131.373004,32.751613],[131.373042,32.752524],[131.374065,32.752621],[131.374248,32.75283],[131.37434,32.753083],[131.373942,32.75365],[131.3739,32.755229],[131.374767,32.756078],[131.374933,32.756632],[131.376569,32.757666],[131.377121,32.758409],[131.377034,32.758664],[131.377951,32.759268],[131.380172,32.761904],[131.380038,32.762603],[131.378485,32.763381],[131.379011,32.763826],[131.378498,32.764209],[131.378385,32.765476],[131.379017,32.765876],[131.379385,32.766986],[131.378184,32.767109],[131.378338,32.767487],[131.379553,32.768188],[131.378891,32.769081],[131.379285,32.769555],[131.379278,32.770254],[131.378531,32.77062],[131.378565,32.770806],[131.379725,32.77097],[131.380805,32.770383],[131.380924,32.771578],[131.381392,32.771888],[131.380865,32.772463],[131.381565,32.773178],[131.381957,32.773207],[131.381932,32.773617],[131.382357,32.773539],[131.382585,32.773797],[131.382585,32.774621],[131.381965,32.775201],[131.381018,32.775144],[131.380977,32.775787],[131.381885,32.776136],[131.382392,32.776762],[131.383105,32.777134],[131.382592,32.778491],[131.381757,32.77915],[131.380751,32.779539],[131.381557,32.779961],[131.382785,32.78017],[131.381594,32.781519],[131.381896,32.781955],[131.384128,32.781658],[131.385511,32.782839],[131.38654,32.78293],[131.387946,32.784367],[131.389318,32.78458],[131.389438,32.784952],[131.389118,32.785477],[131.389612,32.785742],[131.389598,32.785962],[131.387331,32.786348],[131.387239,32.786959],[131.385485,32.787345],[131.385895,32.787835],[131.386683,32.788004],[131.387099,32.7878],[131.387395,32.787985],[131.388373,32.787748],[131.389018,32.787922],[131.389526,32.788487],[131.390586,32.788356],[131.390862,32.78852],[131.390852,32.789007],[131.390259,32.789928],[131.389725,32.790306],[131.390305,32.790689],[131.390332,32.791708],[131.390659,32.792261],[131.390459,32.792558],[131.390892,32.794186],[131.389465,32.792597],[131.389525,32.792074],[131.3892,32.792096],[131.388793,32.793539],[131.38962,32.794046],[131.389732,32.794372],[131.388866,32.79457],[131.386033,32.796936],[131.386713,32.797568],[131.386626,32.798807],[131.387106,32.799843],[131.385133,32.798931],[131.385319,32.799482],[131.386459,32.800209],[131.386473,32.800699],[131.386899,32.800902],[131.386393,32.801375],[131.386199,32.802248],[131.385513,32.802519],[131.385192,32.803274],[131.385433,32.803534],[131.386739,32.80381],[131.386766,32.804373],[131.387154,32.804972],[131.38768,32.805062],[131.38774,32.805899],[131.388386,32.806475],[131.387959,32.806788],[131.385209,32.81161],[131.385092,32.8128],[131.386226,32.813004],[131.386299,32.813962],[131.386786,32.81453],[131.387899,32.815003],[131.388274,32.815653],[131.389913,32.815482],[131.390576,32.814839],[131.391652,32.816069],[131.392192,32.816112],[131.392019,32.816418],[131.39114,32.816831],[131.390859,32.818098],[131.391206,32.818351],[131.392154,32.818424],[131.392534,32.818954],[131.394014,32.819332],[131.39348,32.819991],[131.39294,32.820244],[131.392467,32.821343],[131.393114,32.822374],[131.394864,32.823748],[131.395621,32.82395],[131.397128,32.823873],[131.397808,32.822509],[131.399068,32.822971],[131.3989,32.823687],[131.400053,32.826087],[131.400855,32.825873],[131.401622,32.826267],[131.402288,32.826205],[131.402435,32.826442],[131.400761,32.826289],[131.399883,32.826873],[131.399423,32.826923],[131.399087,32.825844],[131.398337,32.824643],[131.397798,32.824916],[131.397181,32.825831],[131.396206,32.825917],[131.395357,32.825591],[131.393954,32.825766],[131.393327,32.82608],[131.3931,32.825026],[131.391685,32.824507],[131.390922,32.823525],[131.390011,32.82329],[131.389689,32.822551],[131.389108,32.822759],[131.38939,32.821924],[131.388949,32.822001],[131.388611,32.82163],[131.388341,32.822112],[131.387888,32.821512],[131.386268,32.821955],[131.385291,32.821546],[131.385364,32.821772],[131.386572,32.822373],[131.386474,32.822896],[131.38748,32.823893],[131.387447,32.824068],[131.386564,32.824202],[131.386564,32.824378],[131.387887,32.82507],[131.388507,32.8257],[131.389819,32.825815],[131.390333,32.826864],[131.391461,32.828269],[131.393546,32.829558],[131.394784,32.829459],[131.397442,32.831083],[131.398241,32.830881],[131.399161,32.830253],[131.400723,32.830302],[131.401656,32.83191],[131.402173,32.831839],[131.404691,32.834094],[131.405725,32.834424],[131.405985,32.835039],[131.406727,32.834877],[131.406997,32.834432],[131.408081,32.834991],[131.409,32.835041],[131.409061,32.835968],[131.410135,32.836859],[131.409783,32.837214],[131.410056,32.838081],[131.409889,32.838667],[131.410203,32.839202],[131.41071,32.839416],[131.410769,32.840143],[131.411334,32.840269],[131.411312,32.840841],[131.411532,32.841125],[131.414027,32.842019],[131.414056,32.842511],[131.414594,32.843253],[131.416329,32.844205],[131.417163,32.846481],[131.41693,32.847191],[131.417416,32.848059],[131.418757,32.848008],[131.419545,32.848262],[131.42008,32.848848],[131.420073,32.849872],[131.420997,32.851172],[131.423144,32.852],[131.423376,32.852499],[131.423315,32.853562],[131.424424,32.854566],[131.42425,32.854893],[131.424877,32.855156],[131.425005,32.85567],[131.424639,32.856208],[131.425357,32.856403],[131.425604,32.857006],[131.425029,32.857941],[131.425332,32.858937],[131.425165,32.859535],[131.425819,32.85945],[131.426019,32.859681],[131.426712,32.859755],[131.426742,32.860495],[131.427655,32.86059],[131.428081,32.861703],[131.429568,32.862285],[131.429708,32.862565],[131.429121,32.862843],[131.428888,32.8634],[131.430283,32.864127],[131.430437,32.8646],[131.430916,32.864706],[131.431111,32.865423],[131.429529,32.865851],[131.429415,32.866386],[131.429996,32.866673],[131.430594,32.867599],[131.430449,32.868378],[131.431172,32.869757],[131.431251,32.871382],[131.432118,32.872572],[131.432225,32.873547],[131.431584,32.873963],[131.432098,32.874555],[131.431471,32.875716],[131.431883,32.876758],[131.431697,32.877143],[131.432932,32.878257],[131.434433,32.880498],[131.433339,32.88082],[131.432397,32.880713],[131.432043,32.880448],[131.431617,32.880758],[131.430488,32.880611],[131.430608,32.881186],[131.430001,32.881794],[131.430315,32.882392],[131.431317,32.882482],[131.431117,32.883066],[131.431294,32.883338],[131.432359,32.88282],[131.433025,32.883372],[131.433886,32.883361],[131.434477,32.883645],[131.434471,32.884323],[131.433684,32.884982],[131.434097,32.885354],[131.433786,32.88587],[131.433892,32.8864],[131.434367,32.886646],[131.435244,32.886511],[131.436023,32.886781],[131.436077,32.88816],[131.435677,32.889003],[131.436015,32.889614],[131.435274,32.890318],[131.436514,32.890458],[131.437403,32.89096],[131.437523,32.892629],[131.438145,32.893188],[131.43741,32.893806],[131.436141,32.893847],[131.437422,32.894589],[131.439331,32.894276],[131.439815,32.894469],[131.439908,32.894852],[131.439554,32.895761],[131.439926,32.896934],[131.439781,32.897854],[131.440526,32.898441],[131.440768,32.898986],[131.440665,32.899397],[131.439754,32.899891],[131.436815,32.899829],[131.435981,32.90095],[131.434432,32.901214],[131.434295,32.902133],[131.434773,32.902719],[131.434833,32.903186],[131.434474,32.903884],[131.435026,32.904725],[131.436101,32.904747],[131.436014,32.905423],[131.436448,32.906121],[131.437082,32.905463],[131.438003,32.905423],[131.438646,32.906422],[131.439218,32.90611],[131.439644,32.90617],[131.439733,32.907279],[131.440018,32.907625],[131.442792,32.907865],[131.44304,32.908205],[131.442838,32.909162],[131.443154,32.909894],[131.443102,32.911011],[131.443493,32.912145],[131.442978,32.912639],[131.441671,32.912643],[131.441312,32.9129],[131.441804,32.913956],[131.441213,32.914881],[131.440895,32.916351],[131.4414,32.91883],[131.441994,32.920321],[131.441644,32.924003],[131.441956,32.924766],[131.441974,32.926464],[131.442134,32.926854],[131.44306,32.927313],[131.442749,32.928649],[131.44354,32.930237],[131.443253,32.931842],[131.442465,32.932908],[131.44194,32.934439],[131.441304,32.939232],[131.441404,32.939804],[131.443374,32.941863],[131.443756,32.94298],[131.443328,32.943917],[131.442874,32.946411],[131.443061,32.948949],[131.444988,32.951334],[131.445947,32.951802],[131.447365,32.954031],[131.447817,32.955966],[131.447369,32.957598],[131.447908,32.9603],[131.451391,32.959507],[131.451848,32.96047],[131.451955,32.961319],[131.453312,32.96275],[131.451823,32.963792],[131.451382,32.96377],[131.450916,32.964727],[131.450417,32.965053],[131.45598,32.968485],[131.457606,32.968102],[131.46228,32.969621],[131.464583,32.969599],[131.464165,32.972627],[131.462407,32.97359],[131.461187,32.974726],[131.458475,32.975741],[131.456475,32.977245],[131.456102,32.979371],[131.455366,32.980579],[131.455054,32.981853],[131.455041,32.984119],[131.453386,32.985021],[131.451718,32.985291],[131.450983,32.986269],[131.451195,32.987467],[131.448686,32.989599],[131.447468,32.991558],[131.447254,32.992448],[131.446015,32.992778],[131.44759,32.994767],[131.449971,32.995711],[131.45029,32.996494],[131.450123,32.996618],[131.449483,32.996348],[131.448465,32.996578],[131.447929,32.997244],[131.447488,32.997428],[131.447497,32.998235],[131.446116,33.000638],[131.446011,33.002947],[131.44272,33.003274],[131.437057,33.006504],[131.436016,33.006316],[131.434466,33.005278],[131.431882,33.005722],[131.429533,33.005429],[131.431149,33.006676],[131.431705,33.007462],[131.431697,33.009766],[131.432735,33.012646],[131.432869,33.014279],[131.432227,33.015642],[131.431912,33.017107],[131.431183,33.018291],[131.430883,33.020477],[131.431484,33.021373],[131.433563,33.022268],[131.433723,33.02424],[131.433422,33.025451],[131.433817,33.026995],[131.4325,33.028588],[131.432172,33.029913],[131.431202,33.031761],[131.428357,33.032881],[131.42745,33.034222],[131.427268,33.036014],[131.424729,33.037576],[131.421827,33.040478],[131.421265,33.042893],[131.421833,33.044219],[131.421059,33.045891],[131.42164,33.048392],[131.420631,33.052259],[131.420782,33.053536],[131.421097,33.054171],[131.423178,33.0564],[131.425311,33.05711],[131.426294,33.058136],[131.427116,33.058603],[131.428005,33.05982],[131.428272,33.061008],[131.429217,33.062079],[131.429085,33.062358],[131.42826,33.061937],[131.427784,33.062072],[131.427397,33.063255],[131.427443,33.064823],[131.42939,33.068411],[131.431121,33.069054],[131.430276,33.071819],[131.43179,33.074248],[131.434893,33.077285],[131.4376,33.079082],[131.437935,33.08036],[131.439132,33.081549],[131.440937,33.082394],[131.442121,33.083792],[131.443792,33.084834],[131.448652,33.087308],[131.450217,33.088965],[131.450363,33.089445],[131.450011,33.090748],[131.450322,33.092318],[131.451421,33.093038],[131.451947,33.094092],[131.453067,33.094489],[131.453537,33.095008],[131.453792,33.095777],[131.453689,33.096627],[131.454234,33.097018],[131.455821,33.097314],[131.456951,33.099299],[131.457496,33.099354],[131.458573,33.098914],[131.459159,33.099582],[131.459929,33.099633],[131.460228,33.099881],[131.461844,33.10339],[131.461193,33.104058],[131.461156,33.105745],[131.460771,33.10599],[131.460643,33.106498],[131.46166,33.107628],[131.461959,33.10865],[131.46286,33.108847],[131.463525,33.110116],[131.465845,33.111943],[131.467729,33.115257],[131.46894,33.116236],[131.469604,33.117198],[131.470838,33.117731],[131.471953,33.118862],[131.473939,33.119124],[131.475707,33.120233],[131.477021,33.120378],[131.478303,33.122102],[131.478357,33.122678],[131.477938,33.12381],[131.477881,33.126343],[131.476771,33.126732],[131.476148,33.128043],[131.473724,33.128782],[131.473173,33.130103],[131.473195,33.130984],[131.472925,33.131321],[131.471215,33.131902],[131.470356,33.131039],[131.469072,33.13097],[131.468818,33.131285],[131.468951,33.131997],[131.468415,33.132911],[131.469875,33.134529],[131.47153,33.135554],[131.471983,33.136671],[131.475196,33.139502],[131.475647,33.140259],[131.475752,33.141079],[131.476187,33.141492],[131.476217,33.142436],[131.476974,33.142922],[131.477344,33.143521],[131.477215,33.14415],[131.479081,33.146448],[131.48163,33.148587],[131.481916,33.150122],[131.481689,33.152827],[131.482008,33.153619],[131.483358,33.154415],[131.483973,33.155663],[131.486554,33.156742],[131.48633,33.158367],[131.486584,33.158952],[131.487798,33.160295],[131.489133,33.160392],[131.489463,33.160816],[131.489785,33.162317],[131.488486,33.163945],[131.48868,33.16595],[131.490548,33.170552],[131.491148,33.171293],[131.492479,33.175355],[131.493846,33.177262],[131.494138,33.178577],[131.493421,33.179654],[131.494615,33.183136],[131.494304,33.184786],[131.494795,33.18581],[131.494595,33.186701],[131.494766,33.186987],[131.49588,33.187978],[131.497609,33.188431],[131.497944,33.188883],[131.498118,33.189869],[131.499184,33.190686],[131.49986,33.19082],[131.502169,33.190507],[131.50411,33.191555],[131.506119,33.192077],[131.507042,33.193951],[131.508322,33.194783],[131.508973,33.196781],[131.508834,33.197793],[131.512002,33.199411],[131.513783,33.199758],[131.513988,33.201062],[131.513085,33.202328],[131.512435,33.203972],[131.511084,33.204325],[131.509015,33.203407],[131.508572,33.203616],[131.509197,33.204239],[131.509534,33.205231],[131.508948,33.207277],[131.509218,33.20923],[131.508821,33.209693],[131.509098,33.20993],[131.510819,33.210186],[131.51091,33.210533],[131.509635,33.210959],[131.509564,33.211722],[131.508068,33.211531],[131.507527,33.211839],[131.507105,33.211777],[131.506007,33.212505],[131.505072,33.2126],[131.504916,33.212883],[131.505239,33.213055],[131.50677,33.21298],[131.507367,33.213467],[131.508501,33.213571],[131.509084,33.215658],[131.511004,33.216199],[131.511594,33.216647],[131.511596,33.217035],[131.514046,33.217871],[131.515302,33.219085],[131.51835,33.219901],[131.522198,33.220006],[131.524241,33.221815],[131.526568,33.223302],[131.52925,33.22406],[131.53084,33.224997],[131.529661,33.225736],[131.529499,33.226384],[131.529921,33.228508],[131.529526,33.23177],[131.530076,33.232649],[131.529755,33.23344],[131.529933,33.234321],[131.527564,33.235741],[131.527014,33.236403],[131.526944,33.237066],[131.525212,33.23795],[131.523243,33.241566],[131.521833,33.243456],[131.521807,33.244619],[131.520912,33.244335],[131.520455,33.243881],[131.519176,33.243728],[131.518653,33.243963],[131.518324,33.244771],[131.517002,33.244593],[131.516786,33.244893],[131.51684,33.245384],[131.517622,33.246679],[131.517349,33.246846],[131.516147,33.246654],[131.514697,33.247968],[131.513709,33.248358],[131.511757,33.250633],[131.511437,33.251609],[131.510961,33.252072],[131.509913,33.252322],[131.509328,33.252219],[131.507772,33.251049],[131.506019,33.250568],[131.505348,33.249398],[131.504007,33.248666],[131.50287,33.249077],[131.502439,33.249723],[131.502149,33.250915],[131.50068,33.251751],[131.500572,33.252317],[131.501228,33.252699],[131.502298,33.252635],[131.502621,33.252317],[131.50257,33.251952],[131.501915,33.251793],[131.501599,33.252288],[131.502864,33.253423],[131.504119,33.253082],[131.504604,33.253338],[131.504409,33.253983],[131.502925,33.254238],[131.502543,33.254606],[131.502292,33.257832],[131.502605,33.258397],[131.504202,33.259293],[131.504681,33.260894],[131.505693,33.261665],[131.505768,33.262067],[131.505403,33.262508],[131.504899,33.262585],[131.503746,33.262257],[131.503181,33.262794],[131.504164,33.263743],[131.504377,33.265115],[131.506063,33.266524],[131.505563,33.266912],[131.506072,33.266891],[131.505536,33.267428],[131.504716,33.26761],[131.504893,33.268017],[131.504352,33.269004],[131.502179,33.26977],[131.501325,33.270557],[131.500487,33.271808],[131.498791,33.272177],[131.497164,33.272943],[131.496686,33.272876]]}}